[{"OBJECT_NAME":"PROPCUBE 1 (FLORA)","OBJECT_ID":"2015-058N","EPOCH":"2026-03-09T22:10:52.593312","MEAN_MOTION":14.88641208,"ECCENTRICITY":0.01301152,"INCLINATION":64.774,"RA_OF_ASC_NODE":242.7389,"ARG_OF_PERICENTER":100.0601,"MEAN_ANOMALY":261.522,"EPHEMERIS_TYPE":0,"CLASSIFICATION_TYPE":"U","NORAD_CAT_ID":40976,"ELEMENT_SET_NO":999,"REV_AT_EPOCH":10148,"BSTAR":0.00044491072,"MEAN_MOTION_DOT":4.703e-5,"MEAN_MOTION_DDOT":0},{"OBJECT_NAME":"STARLINK-4201","OBJECT_ID":"2022-062AC","EPOCH":"2026-03-09T04:00:17.746848","MEAN_MOTION":15.08837656,"ECCENTRICITY":0.00015063,"INCLINATION":53.2195,"RA_OF_ASC_NODE":26.5158,"ARG_OF_PERICENTER":67.3477,"MEAN_ANOMALY":292.7674,"EPHEMERIS_TYPE":0,"CLASSIFICATION_TYPE":"U","NORAD_CAT_ID":52856,"ELEMENT_SET_NO":999,"REV_AT_EPOCH":20584,"BSTAR":-1.688558e-5,"MEAN_MOTION_DOT":-5.57e-6,"MEAN_MOTION_DDOT":0}]
